STARLINK-2704           
1 48643U 21044F   24335.68155196  .00020821  00000+0  14102-2 0  9996
2 48643  53.0518  44.6161 0002855  96.6746 263.4568 15.06460663193777
STARLINK-2695           
1 48644U 21044G   24335.67880049  .00006436  00000+0  45010-3 0  9997
2 48644  53.0535  44.6453 0001942  75.7633 284.3572 15.06439933193773
STARLINK-2733           
1 48645U 21044H   24335.67515087  .00008209  00000+0  56951-3 0  9991
2 48645  53.0542  44.6566 0002115 109.3744 250.7473 15.06389015193779
STARLINK-2732           
1 48646U 21044J   24335.67144230  .00028595  00000+0  19276-2 0  9998
2 48646  53.0530  44.6783 0002120  86.1066 274.0165 15.06461704193776
STARLINK-2691           
1 48647U 21044K   24335.93126708  .00014103  00000+0  95360-3 0  9997
2 48647  53.0542  43.4893 0001558  59.3246 300.7897 15.06796004193813
STARLINK-2521           
1 48648U 21044L   24335.68252423  .00011108  00000+0  76258-3 0  9991
2 48648  53.0528  44.7944 0001978  81.6588 278.4625 15.06442846193779
STARLINK-2673           
1 48649U 21044M   24335.92946495  .00007167  00000+0  49940-3 0  9996
2 48649  53.0540  43.5188 0001014  97.4435 262.6669 15.06408318193801
STARLINK-2672           
1 48650U 21044N   24335.92580222 -.00006981  00000+0 -45066-3 0  9990
2 48650  53.0503  43.5352 0003471  92.0790 268.0596 15.06354542193807
STARLINK-2731           
1 48651U 21044P   24335.92210250 -.00000670  00000+0 -26125-4 0  9997
2 48651  53.0553  43.5513 0001439  75.2273 284.8876 15.06380947193808
STARLINK-2727           
1 48652U 21044Q   24335.91844695 -.00002834  00000+0 -17162-3 0  9997
2 48652  53.0547  43.5664 0001786 107.3160 252.8025 15.06351529193801
STARLINK-2720           
1 48653U 21044R   24335.91474670 -.00007479  00000+0 -48421-3 0  9992
2 48653  53.0548  43.5836 0001848  78.0218 282.0978 15.06359528193800
STARLINK-2651           
1 48654U 21044S   24335.91103389  .00023891  00000+0  16154-2 0  9990
2 48654  53.0541  43.6032 0001527  77.1141 283.0019 15.06445425193801
STARLINK-2657           
1 48655U 21044T   24335.90737122 -.00009653  00000+0 -63070-3 0  9990
2 48655  53.0550  43.6178 0001462 102.7585 257.3567 15.06360235193805
STARLINK-2701           
1 48656U 21044U   24335.90366628 -.00006763  00000+0 -43586-3 0  9999
2 48656  53.0574  43.6330 0001605  91.9167 268.2006 15.06372519193803
STARLINK-2734           
1 48657U 21044V   24335.93218537 -.00003345  00000+0 -20598-3 0  9999
2 48657  53.0556  43.1491 0001832  98.8373 261.2824 15.06361920193810
STARLINK-2647           
1 48658U 21044W   24335.89630066 -.00019758  00000+0 -13117-2 0  9993
2 48658  53.0548  43.6646 0005939  81.2960 278.8701 15.06367508193804
STARLINK-2717           
1 48659U 21044X   24335.89262207  .00011292  00000+0  77704-3 0  9998
2 48659  53.0544  43.6763 0006865  72.4609 287.7130 15.06326855193807
STARLINK-2688           
1 48660U 21044Y   24335.91667824  .01171691  00000+0  33135-1 0  9996
2 48660  53.0578  42.4647 0001398  73.0438 288.9861 15.33251794  5699
STARLINK-2726           
1 48662U 21044AA  24335.88617091 -.00011982  00000+0 -78783-3 0  9992
2 48662  53.0540  33.7108 0001816 101.1173 259.0020 15.06352151193940
STARLINK-2667           
1 48663U 21044AB  24335.88248734  .00007630  00000+0  53126-3 0  9994
2 48663  53.0552  33.7290 0001665  98.5392 261.5785 15.06351182193949
STARLINK-2709           
1 48664U 21044AC  24335.87878530 -.00026752  00000+0 -17836-2 0  9992
2 48664  53.0542  33.7448 0002025  83.6375 276.4845 15.06402608193943
STARLINK-2666           
1 48666U 21044AE  24335.90463899  .00008406  00000+0  58227-3 0  9990
2 48666  53.0558  34.1001 0000899  86.6053 273.5039 15.06415994193939
STARLINK-2735           
1 48667U 21044AF  24335.87509980 -.00018201  00000+0 -12070-2 0  9990
2 48667  53.0553  33.7615 0001047  99.3865 260.7242 15.06374024193942
STARLINK-2738           
1 48668U 21044AG  24335.87143709 -.00001324  00000+0 -69986-4 0  9992
2 48668  53.0551  33.7751 0003322  80.2616 279.8748 15.06378041193948
STARLINK-2707           
1 48669U 21044AH  24335.86773251 -.00013327  00000+0 -87809-3 0  9992
2 48669  53.0557  33.7994 0001569  96.7576 263.3592 15.06373771193931
STARLINK-2763           
1 48670U 21044AJ  24335.86406539 -.00007598  00000+0 -49215-3 0  9998
2 48670  53.0546  33.8101 0002653  79.6231 280.5057 15.06361634193937
STARLINK-2745           
1 48671U 21044AK  24335.88988617  .00006217  00000+0  43577-3 0  9993
2 48671  53.0535  34.0016 0001573  77.8521 282.2644 15.06409213193933
STARLINK-2705           
1 48672U 21044AL  24335.85669024 -.00008400  00000+0 -54606-3 0  9992
2 48672  53.0562  33.8361 0004480  76.8090 283.3398 15.06361326193934
STARLINK-2711           
1 48673U 21044AM  24335.65393786  .00004134  00000+0  29623-3 0  9999
2 48673  53.0529  34.7552 0002042  87.9716 272.1507 15.06403909193909
STARLINK-2712           
1 48674U 21044AN  24335.86038832  .00057276  00000+0  38421-2 0  9991
2 48674  53.0540  33.9371 0006537  72.1694 288.0007 15.06298161193933
STARLINK-2737           
1 48675U 21044AP  24335.64657954  .00012835  00000+0  87814-3 0  9993
2 48675  53.0544  34.7882 0001508  91.7669 268.3493 15.06435041193903
STARLINK-2746           
1 48676U 21044AQ  24335.90827489  .00009069  00000+0  62665-3 0  9997
2 48676  53.0551  33.6172 0000415  26.6787 333.4224 15.06416849193941
STARLINK-2615           
1 48678U 21044AS  24335.90090762  .00006192  00000+0  43425-3 0  9992
2 48678  53.0565  33.6452 0001202  98.5277 261.5848 15.06399187193944
STARLINK-2648           
1 48679U 21044AT  24335.89722552 -.00024284  00000+0 -16180-2 0  9991
2 48679  53.0549  33.6615 0001898  85.1128 275.0078 15.06374082193948
STARLINK-2649           
1 48680U 21044AU  24335.89353249 -.00034226  00000+0 -22916-2 0  9997
2 48680  53.0551  33.6787 0001364  92.6657 267.4488 15.06371984193949
STARLINK-2725           
1 48681U 21044AV  24335.82630628 -.00013446  00000+0 -88586-3 0  9997
2 48681  53.0573   4.2220 0001843  89.5262 270.5938 15.06384247194345
STARLINK-2743           
1 48682U 21044AW  24335.75721255  .00019260  00000+0  13079-2 0  9999
2 48682  53.0581 354.4565 0000876  89.4358 270.6731 15.06412040194476
STARLINK-2756           
1 48683U 21044AX  24335.77927032  .00011958  00000+0  81971-3 0  9996
2 48683  53.0532 354.2008 0001541  80.9705 279.1459 15.06427313194486
STARLINK-2741           
1 48684U 21044AY  24335.80190142 -.00017937  00000+0 -11883-2 0  9994
2 48684  53.0546   9.4480 0002263  88.8554 271.2694 15.06397767194276
STARLINK-2751           
1 48685U 21044AZ  24335.55072641  .00014815  00000+0  10100-2 0  9991
2 48685  53.0544 355.2696 0001497  83.9154 276.2005 15.06450226194457
STARLINK-2629           
1 48686U 21044BA  24335.81017785  .00003017  00000+0  22129-3 0  9996
2 48686  53.0542 359.3347 0001649  84.6554 275.4623 15.06406196194415
STARLINK-2627           
1 48687U 21044BB  24335.51986511  .00022304  00000+0  15096-2 0  9990
2 48687  53.0545 350.3569 0001489 102.1760 257.9396 15.06447402194511
STARLINK-2742           
1 48688U 21044BC  24335.52354165  .00010342  00000+0  71129-3 0  9995
2 48688  53.0522 350.3370 0002185 104.6907 255.4324 15.06444854195356
STARLINK-2617           
1 48689U 21044BD  24335.91667824  .01245284  00000+0  36333-1 0  9990
2 48689  53.0504 352.5212 0001134  87.3762  25.7841 15.32082174  5742
STARLINK-2740           
1 48690U 21044BE  24335.80046527 -.00008521  00000+0 -55413-3 0  9995
2 48690  53.0558   4.0972 0002967  83.0353 277.0974 15.06373672194340
STARLINK-2750           
1 48691U 21044BF  24335.77329576 -.00001210  00000+0 -62256-4 0  9992
2 48691  53.0544 359.2162 0004586  78.9959 281.1546 15.06384989194418
STARLINK-2752           
1 48692U 21044BG  24335.55950776  .00022948  00000+0  15524-2 0  9994
2 48692  53.0550   0.3049 0001195  74.9433 285.1688 15.06450155194386
STARLINK-2618           
1 48693U 21044BH  24335.56729998  .00023650  00000+0  15989-2 0  9992
2 48693  53.0550   5.1434 0001672  83.8035 276.3144 15.06454580194313
STARLINK-2748           
1 48694U 21044BJ  24335.80091478  .00000451  00000+0  49273-4 0  9994
2 48694  53.0546   9.0863 0003624  79.6273 280.5124 15.06382339194276
STARLINK-2616           
1 48695U 21044BK  24335.82399323 -.00002602  00000+0 -15596-3 0  9999
2 48695  53.0560   9.0368 0002378  83.9875 276.1385 15.06368308194285
STARLINK-2753           
1 48696U 21044BL  24335.81430104 -.00010016  00000+0 -65489-3 0  9996
2 48696  53.0543  14.0829 0002303  87.4475 272.6778 15.06371680194215
STARLINK-3004           
1 48880U 21059B   24335.78841396 -.00000400  00000+0 -26527-4 0  9999
2 48880  97.6591  97.7536 0000734 255.6557 104.4585 15.01261523189206
STARLINK-3005           
1 48881U 21059C   24335.58178926 -.00002176  00000+0 -16491-3 0  9990
2 48881  97.6605  97.4967 0002325 228.2591 131.8434 15.01255679189178
STARLINK-3096           
1 49131U 21082B   24335.77762034  .00000197  00000+0  24311-4 0  9995
2 49131  69.9998 344.1321 0002915 263.7050  96.3777 14.98322335177473
STARLINK-3090           
1 49132U 21082C   24335.88254336  .00001180  00000+0  10663-3 0  9996
2 49132  69.9999  23.9000 0002871 270.5535  89.5295 14.98330952176502
STARLINK-3077           
1 49133U 21082D   24335.87403799 -.00000621  00000+0 -44291-4 0  9991
2 49133  69.9997  23.8994 0002812 267.1431  92.9406 14.98320668176509
STARLINK-3078           
1 49134U 21082E   24335.86986510 -.00001132  00000+0 -87125-4 0  9999
2 49134  70.0004  23.9136 0002883 269.7707  90.3122 14.98321992177704
STARLINK-3073           
1 49135U 21082F   24335.77343107 -.00000168  00000+0 -63203-5 0  9999
2 49135  69.9995 344.1351 0002978 278.7057  81.3765 14.98348269177485
STARLINK-3084           
1 49136U 21082G   24335.36892590  .00002034  00000+0  17816-3 0  9999
2 49136  70.0008   5.1680 0003107 270.5961  89.4842 14.98338082176938
